[{"OBJECT_NAME":"YAOGAN-43 03C","OBJECT_ID":"2024-190C","EPOCH":"2026-03-09T13:09:38.342016","MEAN_MOTION":15.23076374,"ECCENTRICITY":0.00060361,"INCLINATION":34.9956,"RA_OF_ASC_NODE":104.7228,"ARG_OF_PERICENTER":169.773,"MEAN_ANOMALY":190.3109,"EPHEMERIS_TYPE":0,"CLASSIFICATION_TYPE":"U","NORAD_CAT_ID":61619,"ELEMENT_SET_NO":999,"REV_AT_EPOCH":7662,"BSTAR":2.5482015e-5,"MEAN_MOTION_DOT":5.78e-6,"MEAN_MOTION_DDOT":0},{"OBJECT_NAME":"IRIDIUM 45","OBJECT_ID":"1997-082A","EPOCH":"2026-03-09T19:43:04.689120","MEAN_MOTION":15.36676082,"ECCENTRICITY":0.00899413,"INCLINATION":86.3479,"RA_OF_ASC_NODE":277.5722,"ARG_OF_PERICENTER":47.6509,"MEAN_ANOMALY":313.2314,"EPHEMERIS_TYPE":0,"CLASSIFICATION_TYPE":"U","NORAD_CAT_ID":25104,"ELEMENT_SET_NO":999,"REV_AT_EPOCH":49262,"BSTAR":0.00064625537,"MEAN_MOTION_DOT":0.00026618,"MEAN_MOTION_DDOT":0}]
